YOTSUBA-KULOVER         
1 65941U 98067XN  26063.32712414  .00235069  00000+0  13143-2 0  9994
2 65941  51.6210  85.0577 0006069  34.8104 325.3293 15.78107560 22657
BOTAN                   
1 65942U 98067XP  26062.30429370  .04760636  12041-4  14503-2 0  9999
2 65942  51.6040  82.5602 0002926  46.9281 313.1984 16.26065139 22592
E-KAGAKU-1              
1 65943U 98067XQ  26063.33052556  .00228850  00000+0  12960-2 0  9997
2 65943  51.6236  85.0969 0006197  41.7639 318.3833 15.77837895 22656
HRC MONOBLOCK CAMERA    
1 66052U 98067XR  26063.32575470  .00068021  00000+0  77710-3 0  9990
2 66052  51.6270  92.5913 0003417  67.9159 292.2198 15.61539158 21553
HTV-X1                  
1 66174U 25241A   26063.54402654  .00009464  00000+0  18311-3 0  9994
2 66174  51.6315  97.7962 0008198 156.3781 203.7585 15.48441338554470
SZ-21 MODULE            
1 66515U 25246C   26063.53344539  .00046935  00000+0  41049-3 0  9992
2 66515  41.4731 235.0908 0001435 286.9627  73.1057 15.68084352 17266
SHENZHOU-22             
1 66645U 25272A   26063.53175525  .00024935  00000+0  29808-3 0  9997
2 66645  41.4656 239.5396 0006880 242.0703 117.9439 15.60393731267526
SOYUZ-MS 28             
1 66664U 25275A   26063.54402654  .00009464  00000+0  18311-3 0  9995
2 66664  51.6315  97.7962 0008198 156.3781 203.7585 15.48441338554520
DUPLEX                  
1 66906U 98067XS  26063.38398991  .00042212  00000+0  60284-3 0  9997
2 66906  51.6284  95.9816 0002074  91.8511 268.2718 15.55826494 14302
ISS OBJECT XT           
1 66907U 98067XT  26063.29398340  .00188353  00000+0  16714-2 0  9991
2 66907  51.6246  93.1197 0004640  42.9722 317.1636 15.67417551 14334
ISS OBJECT XU           
1 66908U 98067XU  26063.29254613  .00190633  00000+0  16845-2 0  9995
2 66908  51.6245  93.1068 0004676  47.0078 313.1309 15.67514512 14338
SILVERSAT               
1 66909U 98067XV  26063.23925128  .00227913  00000+0  18132-2 0  9999
2 66909  51.6239  92.7506 0005489  43.4066 316.7363 15.69945816 14330
